NORAD_CAT_ID,OBJECT_NAME,OBJECT_TYPE,EPOCH,MEAN_MOTION,ECCENTRICITY,INCLINATION,RA_OF_ASC_NODE,ARG_OF_PERICENTER,MEAN_ANOMALY,BSTAR,MEAN_MOTION_DOT,MEAN_MOTION_DDOT,TLE_LINE0,TLE_LINE1,TLE_LINE2,SEMIMAJOR_AXIS,PERIOD,APOGEE,PERIGEE,DECAYED
56778.0,STARLINK-6304,PAYLOAD,2024-02-26 22:42:47,14.98329763,0.0002143,70.0021,34.8128,272.1652,87.9261,-6.3653e-05,-8.52e-06,0.0,0 STARLINK-6304,1 56778U 23078M   24057.94637768 -.00000852  00000-0 -63653-4 0  9995,2 56778  70.0021  34.8128 0002143 272.1652  87.9261 14.98329763 42063,6950.194,96.107,573.548,570.569,0.0
56778.0,STARLINK-6304,PAYLOAD,2024-02-27 01:55:03,14.98327638,0.0002218,70.0015,34.4759,272.1523,87.9382,-7.3946e-05,-9.75e-06,0.0,0 STARLINK-6304,1 56778U 23078M   24058.07989916 -.00000975  00000-0 -73946-4 0  9997,2 56778  70.0015  34.4759 0002218 272.1523  87.9382 14.98327638 42346,6950.2,96.107,573.607,570.524,0.0
56778.0,STARLINK-6304,PAYLOAD,2024-02-27 08:19:35,14.98322112,0.0002475,70.001,33.8023,269.3798,90.7078,-5.2397e-05,-7.18e-06,0.0,0 STARLINK-6304,1 56778U 23078M   24058.34694252 -.00000718  00000-0 -52397-4 0  9995,2 56778  70.0010  33.8023 0002475 269.3798  90.7078 14.98322112 42127,6950.217,96.108,573.802,570.362,0.0
56778.0,STARLINK-6304,PAYLOAD,2024-02-27 22:44:48,14.98323609,0.0002549,70.0013,32.2872,276.3035,83.7834,-3.9502e-05,-5.64e-06,0.0,0 STARLINK-6304,1 56778U 23078M   24058.94778262 -.00000564  00000-0 -39502-4 0  9997,2 56778  70.0013  32.2872 0002549 276.3035  83.7834 14.98323609 42213,6950.213,96.107,573.849,570.306,0.0
56778.0,STARLINK-6304,PAYLOAD,2024-02-28 03:33:12,14.98323257,0.0002539,70.0011,31.7822,275.5517,84.5352,-3.9494e-05,-5.64e-06,0.0,0 STARLINK-6304,1 56778U 23078M   24059.14806357 -.00000564  00000-0 -39494-4 0  9997,2 56778  70.0011  31.7822 0002539 275.5517  84.5352 14.98323257 42500,6950.214,96.107,573.843,570.314,0.0
56778.0,STARLINK-6304,PAYLOAD,2024-02-28 14:46:08,14.98337761,0.0002458,70.0009,30.6033,270.558,89.5297,-0.00014492,-1.822e-05,0.0,0 STARLINK-6304,1 56778U 23078M   24059.61537715 -.00001822  00000-0 -14492-3 0  9996,2 56778  70.0009  30.6033 0002458 270.5580  89.5297 14.98337761 42311,6950.169,96.107,573.742,570.326,0.0
56778.0,STARLINK-6304,PAYLOAD,2024-02-28 22:46:48,14.98331066,0.0002485,70.0005,29.7612,273.4108,86.6767,0.00012017,1.341e-05,0.0,0 STARLINK-6304,1 56778U 23078M   24059.94917488  .00001341  00000-0  12017-3 0  9996,2 56778  70.0005  29.7612 0002485 273.4108  86.6767 14.98331066 42364,6950.19,96.107,573.782,570.327,0.0
56778.0,STARLINK-6304,PAYLOAD,2024-02-29 03:35:13,14.98307356,0.0001871,70.0005,29.2564,264.6731,95.4214,0.00053027,6.236e-05,0.0,0 STARLINK-6304,1 56778U 23078M   24060.14945825  .00006236  00000-0  53027-3 0  9990,2 56778  70.0005  29.2564 0001871 264.6731  95.4214 14.98307356 42659,6950.263,96.108,573.428,570.828,0.0
56778.0,STARLINK-6304,PAYLOAD,2024-02-29 14:48:09,14.98333913,0.0002478,70.0004,28.0779,273.8419,86.2457,4.2299e-05,4.12e-06,0.0,0 STARLINK-6304,1 56778U 23078M   24060.61677407  .00000412  00000-0  42299-4 0  9990,2 56778  70.0004  28.0779 0002478 273.8419  86.2457 14.98333913 42466,6950.181,96.107,573.768,570.324,0.0
56778.0,STARLINK-6304,PAYLOAD,2024-02-29 22:48:49,14.98331497,0.0002273,70.0009,27.2371,267.4113,92.6786,5.5838e-05,5.73e-06,0.0,0 STARLINK-6304,1 56778U 23078M   24060.95057529  .00000573  00000-0  55838-4 0  9995,2 56778  70.0009  27.2371 0002273 267.4113  92.6786 14.98331497 42510,6950.188,96.107,573.633,570.473,0.0
56778.0,STARLINK-6304,PAYLOAD,2024-03-01 05:13:21,14.98331805,0.0002317,70.001,26.5635,271.4056,88.6837,5.3013e-05,5.4e-06,0.0,0 STARLINK-6304,1 56778U 23078M   24061.21761491  .00000540  00000-0  53013-4 0  9992,2 56778  70.0010  26.5635 0002317 271.4056  88.6837 14.98331805 42556,6950.187,96.107,573.663,570.442,0.0
56778.0,STARLINK-6304,PAYLOAD,2024-03-01 14:50:10,14.9833546,0.0002424,70.0009,25.5525,272.8644,87.2237,4.8794e-06,-3.5e-07,0.0,0 STARLINK-6304,1 56778U 23078M   24061.61817233 -.00000035  00000-0  48794-5 0  9993,2 56778  70.0009  25.5525 0002424 272.8644  87.2237 14.98335460 42873,6950.176,96.107,573.726,570.356,0.0
56778.0,STARLINK-6304,PAYLOAD,2024-03-02 06:51:30,14.98336798,0.0002214,70.0009,23.8705,262.4295,97.6613,-4.4189e-05,-6.2e-06,0.0,0 STARLINK-6304,1 56778U 23078M   24062.28577081 -.00000620  00000-0 -44189-4 0  9995,2 56778  70.0009  23.8705 0002214 262.4295  97.6613 14.98336798 42719,6950.172,96.107,573.576,570.498,0.0
56778.0,STARLINK-6304,PAYLOAD,2024-03-02 21:16:43,14.98328275,0.0002141,70.0021,22.3567,250.2217,109.8711,-3.0694e-05,-4.59e-06,0.0,0 STARLINK-6304,1 56778U 23078M   24062.88661425 -.00000459  00000-0 -30694-4 0  9993,2 56778  70.0021  22.3567 0002141 250.2217 109.8711 14.98328275 42807,6950.198,96.107,573.551,570.575,0.0
56778.0,STARLINK-6304,PAYLOAD,2024-03-03 03:41:16,14.98314009,0.0002342,70.0016,21.6816,265.9032,94.186,0.00013801,1.553e-05,0.0,0 STARLINK-6304,1 56778U 23078M   24063.15365978  .00001553  00000-0  13801-3 0  9992,2 56778  70.0016  21.6816 0002342 265.9032  94.1860 14.98314009 43106,6950.242,96.108,573.735,570.48,0.0
56778.0,STARLINK-6304,PAYLOAD,2024-03-03 06:53:32,14.98313058,0.0002501,70.0012,21.3453,267.1806,92.9067,0.00014601,1.649e-05,0.0,0 STARLINK-6304,1 56778U 23078M   24063.28718130  .00001649  00000-0  14601-3 0  9993,2 56778  70.0012  21.3453 0002501 267.1806  92.9067 14.98313058 42866,6950.245,96.108,573.849,570.372,0.0
56778.0,STARLINK-6304,PAYLOAD,2024-03-03 21:18:44,14.98322232,0.0002445,70.0011,19.8304,266.2295,93.8584,0.00011533,1.283e-05,0.0,0 STARLINK-6304,1 56778U 23078M   24063.88801572  .00001283  00000-0  11533-3 0  9997,2 56778  70.0011  19.8304 0002445 266.2295  93.8584 14.98322232 42959,6950.217,96.107,573.781,570.383,0.0
56778.0,STARLINK-6304,PAYLOAD,2024-03-04 03:43:16,14.98331527,0.0002313,70.0013,19.1564,261.8404,98.2492,4.775e-05,4.77e-06,0.0,0 STARLINK-6304,1 56778U 23078M   24064.15505174  .00000477  00000-0  47750-4 0  9992,2 56778  70.0013  19.1564 0002313 261.8404  98.2492 14.98331527 43257,6950.188,96.107,573.661,570.446,0.0
56778.0,STARLINK-6304,PAYLOAD,2024-03-04 06:55:32,14.98337213,0.0002316,70.0017,18.8209,264.0115,96.078,0.00011597,1.291e-05,0.0,0 STARLINK-6304,1 56778U 23078M   24064.28856580  .00001291  00000-0  11597-3 0  9990,2 56778  70.0017  18.8209 0002316 264.0115  96.0780 14.98337213 43276,6950.171,96.107,573.645,570.426,0.0
56778.0,STARLINK-6304,PAYLOAD,2024-03-04 22:56:53,14.98356233,0.0001661,70.003,17.1392,251.8924,108.2054,-0.00051278,-6.21e-05,0.0,0 STARLINK-6304,1 56778U 23078M   24064.95617458 -.00006210  00000-0 -51278-3 0  9991,2 56778  70.0030  17.1392 0001661 251.8924 108.2054 14.98356233 43116,6950.112,96.105,573.131,570.822,0.0
56778.0,STARLINK-6304,PAYLOAD,2024-03-05 03:45:17,14.98346338,0.0002079,70.0006,16.6319,263.6255,96.4667,-0.00045882,-5.565e-05,0.0,0 STARLINK-6304,1 56778U 23078M   24065.15645699 -.00005565  00000-0 -45882-3 0  9998,2 56778  70.0006  16.6319 0002079 263.6255  96.4667 14.98346338 43409,6950.142,96.106,573.452,570.562,0.0
56778.0,STARLINK-6304,PAYLOAD,2024-03-05 06:57:34,14.98321401,0.0002358,70.0009,16.2954,257.9709,102.1185,7.0886e-06,-8e-08,0.0,0 STARLINK-6304,1 56778U 23078M   24065.28998043 -.00000008  00000-0  70886-5 0  9996,2 56778  70.0009  16.2954 0002358 257.9709 102.1185 14.98321401 43160,6950.219,96.108,573.723,570.446,0.0
56778.0,STARLINK-6304,PAYLOAD,2024-03-06 03:47:18,14.98337679,0.0002082,70.0022,14.1079,263.9289,96.1632,2.2365e-05,1.74e-06,0.0,0 STARLINK-6304,1 56778U 23078M   24066.15785022  .00000174  00000-0  22365-4 0  9995,2 56778  70.0022  14.1079 0002082 263.9289  96.1632 14.98337679 43550,6950.169,96.107,573.481,570.587,0.0
56778.0,STARLINK-6304,PAYLOAD,2024-03-06 05:23:26,14.98338487,0.0002016,70.0025,13.9399,262.5307,97.5624,3.7718e-05,3.57e-06,0.0,0 STARLINK-6304,1 56778U 23078M   24066.22460914  .00000357  00000-0  37718-4 0  9994,2 56778  70.0025  13.9399 0002016 262.5307  97.5624 14.98338487 43305,6950.167,96.106,573.433,570.63,0.0
56778.0,STARLINK-6304,PAYLOAD,2024-03-07 03:49:19,14.983179,0.0002492,70.0018,11.5825,269.366,90.7214,0.00014276,1.61e-05,0.0,0 STARLINK-6304,1 56778U 23078M   24067.15925693  .00001610  00000-0  14276-3 0  9993,2 56778  70.0018  11.5825 0002492 269.3660  90.7214 14.98317900 43701,6950.23,96.108,573.827,570.363,0.0
56778.0,STARLINK-6304,PAYLOAD,2024-03-07 07:01:35,14.98314443,0.0002438,70.0019,11.2456,269.0717,91.0162,0.00025327,2.929e-05,0.0,0 STARLINK-6304,1 56778U 23078M   24067.29277712  .00002929  00000-0  25327-3 0  9993,2 56778  70.0019  11.2456 0002438 269.0717  91.0162 14.98314443 43467,6950.241,96.108,573.8,570.412,0.0
56778.0,STARLINK-6304,PAYLOAD,2024-03-08 02:15:12,14.98331038,0.0002129,70.0021,9.2258,260.822,99.2698,-8.5005e-05,-1.107e-05,0.0,0 STARLINK-6304,1 56778U 23078M   24068.09389469 -.00001107  00000-0 -85005-4 0  9994,2 56778  70.0021   9.2258 0002129 260.8220  99.2698 14.98331038 43847,6950.19,96.107,573.534,570.575,0.0
56778.0,STARLINK-6304,PAYLOAD,2024-03-08 13:28:08,14.98332623,0.0002176,70.003,8.047,275.7131,84.378,-9.7678e-05,-1.258e-05,0.0,0 STARLINK-6304,1 56778U 23078M   24068.56121340 -.00001258  00000-0 -97678-4 0  9994,2 56778  70.0030   8.0470 0002176 275.7131  84.3780 14.98332623 43655,6950.185,96.107,573.562,570.537,0.0
56778.0,STARLINK-6304,PAYLOAD,2024-03-09 03:53:21,14.98324469,0.0002043,70.0016,6.5318,256.7505,103.3426,0.00010708,1.185e-05,0.0,0 STARLINK-6304,1 56778U 23078M   24069.16205222  .00001185  00000-0  10708-3 0  9998,2 56778  70.0016   6.5318 0002043 256.7505 103.3426 14.98324469 44008,6950.21,96.107,573.495,570.655,0.0
56778.0,STARLINK-6304,PAYLOAD,2024-03-09 13:30:09,14.98333034,0.0002373,70.0019,5.5219,272.7984,87.2903,-2.3654e-06,-1.21e-06,0.0,0 STARLINK-6304,1 56778U 23078M   24069.56260929 -.00000121  00000-0 -23654-5 0  9994,2 56778  70.0019   5.5219 0002373 272.7984  87.2903 14.98333034 43800,6950.184,96.107,573.698,570.399,0.0
